CELESTIS-17 & SHERPA-FX1
1 47486U 21006CB  26068.64311433  .00007207  00000+0  24301-3 0  9993
2 47486  97.2397 112.1052 0006630 178.1385 181.9882 15.30994801284065
STARLINK-31163          
1 58807U 24012W   26068.31840897  .00001196  00000+0  53004-4 0  9991
2 58807  43.0076 166.9672 0002493 302.1524  57.9085 15.27571353121188
